{
  "type": "FeatureCollection",
  "generator": "overpass-turbo",
  "copyright": "The data included in this document is from www.openstreetmap.org. The data is made available under ODbL.",
  "timestamp": "2025-10-08T02:12:19Z",
  "features": [
    {
      "type": "Feature",
      "properties": {
        "@id": "relation/10309010",
        "natural": "wetland",
        "type": "multipolygon",
        "wetland": "marsh"
      },
      "geometry": {
        "type": "Polygon",
        "coordinates": [
          [
            [-48.6615381, -26.3766983],
            [-48.6615425, -26.3767752],
            [-48.6615104, -26.3768809],
            [-48.6614192, -26.3770539],
            [-48.661167, -26.3773519],
            [-48.6610007, -26.3774817],
            [-48.6608452, -26.3775249],
            [-48.6605179, -26.3775249],
            [-48.6604267, -26.3775249],
            [-48.6602926, -26.3776883],
            [-48.6603838, -26.377895],
            [-48.6605394, -26.3780392],
            [-48.6607754, -26.3781016],
            [-48.6609256, -26.3780968],
            [-48.6611778, -26.3780488],
            [-48.6612958, -26.3779575],
            [-48.6614835, -26.3777748],
            [-48.6615696, -26.3777142],
            [-48.6614988, -26.3783154],
            [-48.6614596, -26.378376],
            [-48.6614929, -26.3784324],
            [-48.6613965, -26.3787845],
            [-48.6612421, -26.3787504],
            [-48.660872, -26.3787072],
            [-48.6605179, -26.3786014],
            [-48.6601639, -26.3784669],
            [-48.6598796, -26.3782362],
            [-48.6596596, -26.3779671],
            [-48.6594933, -26.3776499],
            [-48.6594021, -26.3773039],
            [-48.6593807, -26.3769674],
            [-48.6593807, -26.3766118],
            [-48.6593968, -26.3763523],
            [-48.6594933, -26.3760255],
            [-48.6596382, -26.3757179],
            [-48.6598367, -26.3754295],
            [-48.6600888, -26.37517],
            [-48.6603999, -26.3748913],
            [-48.6606306, -26.3749201],
            [-48.6608344, -26.375021],
            [-48.6610115, -26.3750595],
            [-48.6612636, -26.375021],
            [-48.6615318, -26.3747759],
            [-48.6616713, -26.3744683],
            [-48.6617893, -26.3741463],
            [-48.6619663, -26.3738291],
            [-48.6620897, -26.3737811],
            [-48.6622721, -26.3737666],
            [-48.6624062, -26.3738868],
            [-48.6623794, -26.3742136],
            [-48.6623526, -26.3745452],
            [-48.6623311, -26.3748768],
            [-48.6623257, -26.3752133],
            [-48.6623526, -26.3756025],
            [-48.6624345, -26.3757158],
            [-48.6623036, -26.3758997],
            [-48.6622592, -26.3760989],
            [-48.6621776, -26.3761886],
            [-48.662033, -26.3762451],
            [-48.6618959, -26.376368],
            [-48.6617587, -26.3765141],
            [-48.6613658, -26.3765872],
            [-48.66111, -26.3765805],
            [-48.6610007, -26.376649],
            [-48.6611685, -26.3767195],
            [-48.6615381, -26.3766983]
          ],
          [
            [-48.6618542, -26.3755642],
            [-48.6616812, -26.3755523],
            [-48.6614243, -26.3757026],
            [-48.6608109, -26.3757072],
            [-48.6604964, -26.3755523],
            [-48.6601556, -26.3756791],
            [-48.6603444, -26.3758153],
            [-48.660596, -26.3760407],
            [-48.6608843, -26.3762333],
            [-48.6615292, -26.3761347],
            [-48.661828, -26.3756932],
            [-48.6618542, -26.3755642]
          ]
        ]
      },
      "id": "relation/10309010"
    },
    {
      "type": "Feature",
      "properties": {
        "@id": "relation/10309013",
        "natural": "wetland",
        "type": "multipolygon",
        "wetland": "marsh"
      },
      "geometry": {
        "type": "Polygon",
        "coordinates": [
          [
            [-48.6706954, -26.3838176],
            [-48.6704703, -26.3838967],
            [-48.6703369, -26.3840428],
            [-48.670285, -26.3842121],
            [-48.6702771, -26.3843288],
            [-48.6702116, -26.3843945],
            [-48.6701329, -26.3844063],
            [-48.6700307, -26.3843851],
            [-48.6699783, -26.3843053],
            [-48.6699992, -26.3842067],
            [-48.6700403, -26.3841524],
            [-48.6700811, -26.3838435],
            [-48.6700477, -26.3836675],
            [-48.6698587, -26.383538],
            [-48.6697697, -26.3834085],
            [-48.6698327, -26.3833122],
            [-48.6699365, -26.3833188],
            [-48.6700144, -26.3833122],
            [-48.6700069, -26.3832524],
            [-48.6698735, -26.3831926],
            [-48.6698068, -26.3831129],
            [-48.6697104, -26.3832225],
            [-48.6696399, -26.3831561],
            [-48.6695695, -26.3831162],
            [-48.6694694, -26.3831196],
            [-48.6693311, -26.383122],
            [-48.6692904, -26.3831601],
            [-48.6692533, -26.383164],
            [-48.6691432, -26.3834118],
            [-48.6690172, -26.3835679],
            [-48.6688948, -26.3835413],
            [-48.6688726, -26.3834052],
            [-48.6689171, -26.383269],
            [-48.6688474, -26.3830708],
            [-48.6687825, -26.3829885],
            [-48.6689118, -26.3830275],
            [-48.669095, -26.3831018],
            [-48.6691889, -26.3831015],
            [-48.6692528, -26.383064],
            [-48.6693096, -26.3830427],
            [-48.669466, -26.3829957],
            [-48.6697957, -26.382959],
            [-48.6701329, -26.3830543],
            [-48.670491, -26.3831789],
            [-48.670795, -26.3833902],
            [-48.6708579, -26.3836579],
            [-48.6706954, -26.3838176]
          ]
        ]
      },
      "id": "relation/10309013"
    },
    {
      "type": "Feature",
      "properties": {
        "@id": "relation/10309015",
        "natural": "wetland",
        "type": "multipolygon",
        "wetland": "marsh"
      },
      "geometry": {
        "type": "Polygon",
        "coordinates": [
          [
            [-48.6624206, -26.3761567],
            [-48.6623575, -26.3760078],
            [-48.6624204, -26.3758341],
            [-48.6625462, -26.3757307],
            [-48.6626721, -26.3757166],
            [-48.6628608, -26.3745237],
            [-48.6629289, -26.3739882],
            [-48.6630862, -26.3738896],
            [-48.6633798, -26.3739318],
            [-48.6633985, -26.3736076],
            [-48.6635542, -26.3736708],
            [-48.6639552, -26.3743483],
            [-48.6647835, -26.3745926],
            [-48.6657793, -26.3751379],
            [-48.666265, -26.3750748],
            [-48.666606, -26.375118],
            [-48.6666282, -26.3756926],
            [-48.6663243, -26.3759184],
            [-48.6659462, -26.3760944],
            [-48.6654383, -26.3762738],
            [-48.6651269, -26.376111],
            [-48.6652085, -26.3757756],
            [-48.6648741, -26.3754146],
            [-48.664266, -26.3753207],
            [-48.6640248, -26.3753818],
            [-48.6636106, -26.3757434],
            [-48.6626513, -26.3761238],
            [-48.6624206, -26.3761567]
          ]
        ]
      },
      "id": "relation/10309015"
    },
    {
      "type": "Feature",
      "properties": {
        "@id": "relation/10309016",
        "natural": "wetland",
        "type": "multipolygon",
        "wetland": "marsh"
      },
      "geometry": {
        "type": "Polygon",
        "coordinates": [
          [
            [-48.6631754, -26.3796285],
            [-48.6631368, -26.3784525],
            [-48.6632294, -26.3783927],
            [-48.663463, -26.3780141],
            [-48.6636076, -26.3779245],
            [-48.6638782, -26.3778248],
            [-48.6639857, -26.3779245],
            [-48.6639412, -26.3777717],
            [-48.6640227, -26.3775326],
            [-48.6639004, -26.3777451],
            [-48.6636891, -26.3778448],
            [-48.6634519, -26.3779543],
            [-48.6632302, -26.3782965],
            [-48.6631253, -26.3783341],
            [-48.6629291, -26.3777395],
            [-48.6632437, -26.3775282],
            [-48.6636945, -26.37719],
            [-48.6636788, -26.3769129],
            [-48.6643236, -26.3768565],
            [-48.6652306, -26.3768847],
            [-48.6656321, -26.3773536],
            [-48.665674, -26.378091],
            [-48.6655377, -26.3786029],
            [-48.6653647, -26.3786264],
            [-48.66483, -26.3783775],
            [-48.6643267, -26.3783869],
            [-48.6639283, -26.3785372],
            [-48.6638968, -26.3788753],
            [-48.6641275, -26.379035],
            [-48.6644106, -26.3792933],
            [-48.6648038, -26.3793309],
            [-48.6651865, -26.3792886],
            [-48.6653385, -26.3795422],
            [-48.6652861, -26.3799556],
            [-48.6652458, -26.3800887],
            [-48.6652951, -26.3803663],
            [-48.6650607, -26.3801199],
            [-48.6649841, -26.3800699],
            [-48.6648373, -26.3800559],
            [-48.66468, -26.3802813],
            [-48.6645752, -26.380549],
            [-48.6643969, -26.3806899],
            [-48.664182, -26.380704],
            [-48.6638569, -26.3806288],
            [-48.663642, -26.3805255],
            [-48.6635057, -26.3802766],
            [-48.6634008, -26.3800934],
            [-48.6631754, -26.3796285]
          ]
        ]
      },
      "id": "relation/10309016"
    },
    {
      "type": "Feature",
      "properties": {
        "@id": "relation/10309017",
        "natural": "wetland",
        "type": "multipolygon",
        "wetland": "marsh"
      },
      "geometry": {
        "type": "Polygon",
        "coordinates": [
          [
            [-48.6687825, -26.3829885],
            [-48.6686689, -26.382985],
            [-48.668509, -26.3830554],
            [-48.6684068, -26.3832057],
            [-48.6684278, -26.3833208],
            [-48.6684382, -26.3835486],
            [-48.6683806, -26.3836801],
            [-48.6683046, -26.3836918],
            [-48.6681656, -26.3836425],
            [-48.6679035, -26.3834476],
            [-48.6676414, -26.383255],
            [-48.6675391, -26.3831282],
            [-48.6670804, -26.382459],
            [-48.6671486, -26.3823415],
            [-48.6670359, -26.3823674],
            [-48.6668078, -26.3820738],
            [-48.6666453, -26.3819729],
            [-48.666344, -26.3818537],
            [-48.6661957, -26.3817341],
            [-48.666255, -26.3816146],
            [-48.6664849, -26.3814751],
            [-48.6665368, -26.3812958],
            [-48.6662699, -26.38105],
            [-48.6658621, -26.3808574],
            [-48.6655359, -26.3807046],
            [-48.6652951, -26.3803663],
            [-48.6655656, -26.3805042],
            [-48.6658592, -26.3804877],
            [-48.6659955, -26.3802999],
            [-48.6663022, -26.3801496],
            [-48.6666613, -26.3803915],
            [-48.6670571, -26.3804126],
            [-48.6673192, -26.3806521],
            [-48.6673428, -26.3808541],
            [-48.667314, -26.3813284],
            [-48.6674424, -26.3815445],
            [-48.6677255, -26.3819225],
            [-48.6679824, -26.3820235],
            [-48.6682236, -26.382054],
            [-48.6682891, -26.3821856],
            [-48.6682052, -26.3824486],
            [-48.6684044, -26.3826059],
            [-48.6686377, -26.3828759],
            [-48.6687057, -26.3829109],
            [-48.6687825, -26.3829885]
          ]
        ]
      },
      "id": "relation/10309017"
    },
    {
      "type": "Feature",
      "properties": {
        "@id": "relation/10309018",
        "natural": "wetland",
        "type": "multipolygon",
        "wetland": "marsh"
      },
      "geometry": {
        "type": "Polygon",
        "coordinates": [
          [
            [-48.663003, -26.3800573],
            [-48.6631069, -26.3800748],
            [-48.6632886, -26.3801611],
            [-48.6634183, -26.3803504],
            [-48.6636111, -26.3806592],
            [-48.6638743, -26.3807971],
            [-48.6643117, -26.3808668],
            [-48.6644785, -26.3808104],
            [-48.6646509, -26.3806908],
            [-48.6648381, -26.380362],
            [-48.6648807, -26.3802541],
            [-48.6649512, -26.3802325],
            [-48.6650661, -26.3802856],
            [-48.6651926, -26.3804017],
            [-48.6652922, -26.3805614],
            [-48.6653971, -26.3807586],
            [-48.6655701, -26.3809465],
            [-48.666171, -26.3811767],
            [-48.6663249, -26.3812447],
            [-48.6663471, -26.381351],
            [-48.6663026, -26.3814805],
            [-48.6661117, -26.38161],
            [-48.6660209, -26.3816748],
            [-48.6660339, -26.3817811],
            [-48.6661673, -26.3819305],
            [-48.6662248, -26.3820816],
            [-48.6660691, -26.3822344],
            [-48.6659616, -26.3824021],
            [-48.6658559, -26.382505],
            [-48.6659579, -26.3824635],
            [-48.6660746, -26.3822875],
            [-48.6661062, -26.382241],
            [-48.6662489, -26.3821165],
            [-48.6663156, -26.3821231],
            [-48.6664509, -26.3821364],
            [-48.6665362, -26.3820517],
            [-48.6665973, -26.3820683],
            [-48.6667679, -26.3822377],
            [-48.6668642, -26.3823988],
            [-48.6669588, -26.3824901],
            [-48.6670051, -26.3825366],
            [-48.6670681, -26.3826296],
            [-48.6675, -26.3832655],
            [-48.6676483, -26.3834116],
            [-48.6682173, -26.3837686],
            [-48.6683582, -26.3837952],
            [-48.6684583, -26.3837587],
            [-48.6685269, -26.3836591],
            [-48.6685417, -26.383493],
            [-48.6684879, -26.383317],
            [-48.6685213, -26.3831941],
            [-48.6685899, -26.3831061],
            [-48.6687233, -26.3830945],
            [-48.6688067, -26.3831891],
            [-48.6688308, -26.3833087],
            [-48.6687845, -26.3834183],
            [-48.6687808, -26.3835179],
            [-48.6688716, -26.3836823],
            [-48.6689495, -26.3837188],
            [-48.6690588, -26.3837188],
            [-48.6691645, -26.3836375],
            [-48.6692571, -26.3833635],
            [-48.6693053, -26.3832506],
            [-48.6693924, -26.3832174],
            [-48.6695315, -26.3832456],
            [-48.6695835, -26.3832954],
            [-48.6698505, -26.383654],
            [-48.669995, -26.38384],
            [-48.669995, -26.3839662],
            [-48.6699283, -26.3841787],
            [-48.669869, -26.3843248],
            [-48.6696106, -26.384426],
            [-48.6692512, -26.3845558],
            [-48.6688757, -26.3845942],
            [-48.6684895, -26.3845654],
            [-48.6681193, -26.3844741],
            [-48.667776, -26.3843203],
            [-48.6675239, -26.3842338],
            [-48.667202, -26.3840512],
            [-48.6670089, -26.383758],
            [-48.6666763, -26.3836042],
            [-48.6663008, -26.3835466],
            [-48.6659253, -26.3835225],
            [-48.6655337, -26.3834697],
            [-48.6651689, -26.383412],
            [-48.6647934, -26.3833976],
            [-48.6644286, -26.3834985],
            [-48.6645305, -26.3838253],
            [-48.6648524, -26.3840079],
            [-48.6652279, -26.3840992],
            [-48.6655712, -26.3842626],
            [-48.6655712, -26.3846038],
            [-48.6655015, -26.3849258],
            [-48.6654693, -26.3852574],
            [-48.6656302, -26.3855601],
            [-48.6658609, -26.3858437],
            [-48.6661077, -26.3861128],
            [-48.6663061, -26.3864203],
            [-48.6664081, -26.3867663],
            [-48.6664027, -26.3870787],
            [-48.6663705, -26.3874151],
            [-48.6663705, -26.3877514],
            [-48.6664617, -26.3880926],
            [-48.6666119, -26.3884002],
            [-48.6667782, -26.3887077],
            [-48.6667782, -26.3889432],
            [-48.666746, -26.3891594],
            [-48.6666661, -26.3893354],
            [-48.6666195, -26.3892872],
            [-48.6666251, -26.3892319],
            [-48.6666661, -26.3890806],
            [-48.6665962, -26.3889635],
            [-48.666288, -26.3887132],
            [-48.6660003, -26.3885917],
            [-48.6657126, -26.3881757],
            [-48.6657003, -26.3879107],
            [-48.6655688, -26.3877708],
            [-48.6653264, -26.3877377],
            [-48.6650716, -26.3878592],
            [-48.6648702, -26.3880285],
            [-48.6646196, -26.3880469],
            [-48.6644388, -26.3880101],
            [-48.6643812, -26.3878776],
            [-48.6644799, -26.3876898],
            [-48.66471, -26.3874837],
            [-48.6650058, -26.3873291],
            [-48.6653428, -26.3871966],
            [-48.6656264, -26.3869315],
            [-48.6657044, -26.3866554],
            [-48.6656757, -26.3865211],
            [-48.665496, -26.3864031],
            [-48.6653106, -26.3863234],
            [-48.6651517, -26.3862879],
            [-48.6649627, -26.3860376],
            [-48.6645723, -26.38571],
            [-48.6643134, -26.3856474],
            [-48.6640504, -26.3855222],
            [-48.6640011, -26.3852756],
            [-48.6641244, -26.3849075],
            [-48.6641121, -26.3846571],
            [-48.6640258, -26.3843479],
            [-48.6638614, -26.3841381],
            [-48.6637258, -26.3840424],
            [-48.6633847, -26.3840092],
            [-48.662982, -26.3840019],
            [-48.6627478, -26.3840497],
            [-48.6622095, -26.3843074],
            [-48.6618232, -26.3846351],
            [-48.6615561, -26.3847455],
            [-48.6614287, -26.3846424],
            [-48.6615437, -26.3844142],
            [-48.6616136, -26.3841639],
            [-48.6615889, -26.383862],
            [-48.6614492, -26.3836154],
            [-48.6611493, -26.383435],
            [-48.6605123, -26.3832951],
            [-48.6602041, -26.383181],
            [-48.6600438, -26.3830116],
            [-48.6600603, -26.3828202],
            [-48.6601795, -26.3826729],
            [-48.6604137, -26.3825809],
            [-48.6606726, -26.3826288],
            [-48.6609397, -26.3826766],
            [-48.6610917, -26.382765],
            [-48.6615972, -26.3827539],
            [-48.6618026, -26.3826324],
            [-48.6619054, -26.3824337],
            [-48.6619834, -26.3820802],
            [-48.6621149, -26.3818741],
            [-48.6622218, -26.3819219],
            [-48.6623862, -26.3819183],
            [-48.663208, -26.3817821],
            [-48.663508, -26.3817784],
            [-48.6639682, -26.3817931],
            [-48.6645682, -26.3817489],
            [-48.6647819, -26.3816458],
            [-48.6647819, -26.3815943],
            [-48.6645929, -26.381679],
            [-48.6642395, -26.3817011],
            [-48.6636929, -26.3817047],
            [-48.6632532, -26.3816863],
            [-48.6622627, -26.3817644],
            [-48.6622975, -26.3816472],
            [-48.6623905, -26.3814468],
            [-48.6625765, -26.3810798],
            [-48.6627683, -26.3805175],
            [-48.662899, -26.3801609],
            [-48.663003, -26.3800573]
          ]
        ]
      },
      "id": "relation/10309018"
    },
    {
      "type": "Feature",
      "properties": {
        "@id": "relation/10309022",
        "natural": "wetland",
        "type": "multipolygon",
        "wetland": "marsh"
      },
      "geometry": {
        "type": "Polygon",
        "coordinates": [
          [
            [-48.6664737, -26.3892696],
            [-48.6664027, -26.3892964],
            [-48.6662552, -26.3893997],
            [-48.6661238, -26.3895174],
            [-48.6660165, -26.3896688],
            [-48.6659306, -26.3898298],
            [-48.6658448, -26.3900004],
            [-48.6657402, -26.3901542],
            [-48.6656249, -26.3902911],
            [-48.6654693, -26.3903872],
            [-48.6652842, -26.3904088],
            [-48.6650938, -26.3904137],
            [-48.6649463, -26.3903007],
            [-48.6648765, -26.390147],
            [-48.6648738, -26.3899764],
            [-48.6648738, -26.389801],
            [-48.6648738, -26.3896328],
            [-48.6648819, -26.3894982],
            [-48.6649704, -26.3895847],
            [-48.6651501, -26.3896472],
            [-48.6652923, -26.3896472],
            [-48.6654612, -26.3895174],
            [-48.6655927, -26.3893396],
            [-48.6657161, -26.3890369],
            [-48.6657938, -26.3888495],
            [-48.6658421, -26.388763],
            [-48.6659183, -26.388749],
            [-48.6659996, -26.3887477],
            [-48.6661105, -26.3888115],
            [-48.6663604, -26.3889],
            [-48.6664795, -26.3890275],
            [-48.6664737, -26.3892696]
          ]
        ]
      },
      "id": "relation/10309022"
    },
    {
      "type": "Feature",
      "properties": {
        "@id": "relation/10309023",
        "natural": "wetland",
        "type": "multipolygon",
        "wetland": "marsh"
      },
      "geometry": {
        "type": "Polygon",
        "coordinates": [
          [
            [-48.6612663, -26.3845966],
            [-48.6612287, -26.3845245],
            [-48.6612234, -26.3844909],
            [-48.6612099, -26.3843227],
            [-48.6611241, -26.3841737],
            [-48.6609712, -26.3840752],
            [-48.6607915, -26.3840343],
            [-48.6606011, -26.3840319],
            [-48.6604133, -26.3839839],
            [-48.6603195, -26.3838397],
            [-48.6602685, -26.3836763],
            [-48.6602873, -26.3835129],
            [-48.6603194, -26.3834769],
            [-48.660562, -26.3835367],
            [-48.6608075, -26.3836044],
            [-48.6608119, -26.3837111],
            [-48.6607407, -26.3837931],
            [-48.6606622, -26.3839207],
            [-48.6606884, -26.3839283],
            [-48.6607698, -26.3837929],
            [-48.6608656, -26.3836836],
            [-48.660915, -26.3836133],
            [-48.6610284, -26.3836029],
            [-48.6611766, -26.3836315],
            [-48.6612753, -26.3837096],
            [-48.6613596, -26.383858],
            [-48.6613538, -26.3841105],
            [-48.6613299, -26.3844208],
            [-48.6612663, -26.3845966]
          ]
        ]
      },
      "id": "relation/10309023"
    },
    {
      "type": "Feature",
      "properties": {
        "@id": "relation/10309024",
        "natural": "wetland",
        "type": "multipolygon",
        "wetland": "marsh"
      },
      "geometry": {
        "type": "Polygon",
        "coordinates": [
          [
            [-48.6616618, -26.3849044],
            [-48.6619379, -26.3847873],
            [-48.66215, -26.3846779],
            [-48.6622226, -26.3845374],
            [-48.6624376, -26.3844176],
            [-48.6627021, -26.3842953],
            [-48.6628677, -26.3842354],
            [-48.6631873, -26.3841625],
            [-48.6634866, -26.3841573],
            [-48.6637045, -26.3842432],
            [-48.6638527, -26.3844905],
            [-48.6639079, -26.3847717],
            [-48.6638295, -26.3851855],
            [-48.6638353, -26.3854537],
            [-48.6639108, -26.3855656],
            [-48.6639573, -26.3857322],
            [-48.6639806, -26.3857946],
            [-48.6640852, -26.385779],
            [-48.6642363, -26.3857868],
            [-48.6645559, -26.3859066],
            [-48.6646925, -26.3860081],
            [-48.6648814, -26.3862241],
            [-48.6650789, -26.3864142],
            [-48.6653201, -26.3865417],
            [-48.6654857, -26.3866198],
            [-48.6655119, -26.3867552],
            [-48.6654102, -26.3869296],
            [-48.6651603, -26.3871352],
            [-48.6649511, -26.3871977],
            [-48.6646344, -26.3873538],
            [-48.6643932, -26.3875829],
            [-48.6642188, -26.3878562],
            [-48.664184, -26.3879629],
            [-48.6641918, -26.3880348],
            [-48.6641362, -26.3880854],
            [-48.6641121, -26.3881935],
            [-48.6640504, -26.3882608],
            [-48.6639646, -26.3882921],
            [-48.6637044, -26.3883497],
            [-48.6635622, -26.3883714],
            [-48.6635274, -26.3882945],
            [-48.6634737, -26.3881311],
            [-48.6634201, -26.3881167],
            [-48.6633718, -26.3881143],
            [-48.6633396, -26.3880614],
            [-48.6633718, -26.3879725],
            [-48.663455, -26.387886],
            [-48.6635676, -26.3878476],
            [-48.6637178, -26.3878427],
            [-48.6638519, -26.3877947],
            [-48.6638734, -26.3876962],
            [-48.6638197, -26.3875424],
            [-48.663699, -26.3874631],
            [-48.6636803, -26.3874175],
            [-48.6637312, -26.3873478],
            [-48.6637795, -26.3872421],
            [-48.6637366, -26.3870571],
            [-48.6635193, -26.3870138],
            [-48.6633289, -26.3870186],
            [-48.6631411, -26.3870402],
            [-48.6629453, -26.3870234],
            [-48.6629319, -26.3869369],
            [-48.6630151, -26.3868456],
            [-48.6630499, -26.3867759],
            [-48.6630875, -26.3866438],
            [-48.6630875, -26.3864924],
            [-48.6630553, -26.386329],
            [-48.6629641, -26.3861824],
            [-48.6628273, -26.3860599],
            [-48.6627013, -26.3859374],
            [-48.6625886, -26.3858052],
            [-48.6624652, -26.3856682],
            [-48.662366, -26.3855193],
            [-48.662315, -26.3853559],
            [-48.6622801, -26.3851853],
            [-48.6621943, -26.3850363],
            [-48.6620334, -26.3849474],
            [-48.6618429, -26.3849186],
            [-48.6616618, -26.3849044]
          ]
        ]
      },
      "id": "relation/10309024"
    },
    {
      "type": "Feature",
      "properties": {
        "@id": "relation/10309025",
        "natural": "wetland",
        "type": "multipolygon",
        "wetland": "marsh"
      },
      "geometry": {
        "type": "Polygon",
        "coordinates": [
          [
            [-48.6328089, -26.3908315],
            [-48.6322904, -26.3911104],
            [-48.6319739, -26.3913171],
            [-48.6316574, -26.3915189],
            [-48.6313194, -26.3916967],
            [-48.631019, -26.3919129],
            [-48.6307776, -26.3921916],
            [-48.6306006, -26.3925136],
            [-48.6304933, -26.3928596],
            [-48.6303645, -26.39359],
            [-48.630327, -26.3939407],
            [-48.6302465, -26.3946327],
            [-48.6301822, -26.3949739],
            [-48.6300695, -26.3953102],
            [-48.6298871, -26.3956274],
            [-48.6297476, -26.3959349],
            [-48.6296082, -26.3962761],
            [-48.6295116, -26.3966028],
            [-48.6295116, -26.396968],
            [-48.6297369, -26.3972371],
            [-48.6300749, -26.3970737],
            [-48.6302519, -26.3967566],
            [-48.6303324, -26.3964346],
            [-48.6303645, -26.3960983],
            [-48.6304343, -26.3957667],
            [-48.6304718, -26.3958148],
            [-48.630681, -26.3960887],
            [-48.6309385, -26.3964154],
            [-48.6312443, -26.396795],
            [-48.6315179, -26.3971266],
            [-48.631711, -26.3974293],
            [-48.6320221, -26.3976215],
            [-48.6323333, -26.3974389],
            [-48.6325693, -26.3973188],
            [-48.6328965, -26.3974821],
            [-48.6330038, -26.3978041],
            [-48.6329019, -26.398275],
            [-48.6327463, -26.3985921],
            [-48.6326981, -26.3990342],
            [-48.6325532, -26.3993609],
            [-48.6323977, -26.399678],
            [-48.6321402, -26.3999423],
            [-48.6318022, -26.4001249],
            [-48.6314589, -26.4002738],
            [-48.6313516, -26.4002258],
            [-48.6311799, -26.400197],
            [-48.6308956, -26.4002835],
            [-48.6306918, -26.4003651],
            [-48.6304075, -26.4003219],
            [-48.6299837, -26.4000961],
            [-48.6290503, -26.3994041],
            [-48.6283851, -26.3989381],
            [-48.6281544, -26.3987074],
            [-48.6280793, -26.39852],
            [-48.6282724, -26.3984912],
            [-48.6282992, -26.3983615],
            [-48.6281866, -26.3980443],
            [-48.6279666, -26.3977704],
            [-48.6277145, -26.3975062],
            [-48.6275536, -26.3971986],
            [-48.6274892, -26.3968911],
            [-48.6274785, -26.3966941],
            [-48.6273819, -26.3964346],
            [-48.6272317, -26.3962472],
            [-48.6269742, -26.3959877],
            [-48.626824, -26.3956802],
            [-48.6267597, -26.395339],
            [-48.6267543, -26.3950027],
            [-48.6267597, -26.3949498],
            [-48.626765, -26.3944741],
            [-48.6268133, -26.3941185],
            [-48.6269152, -26.3937918],
            [-48.6270815, -26.3934842],
            [-48.6273015, -26.3932103],
            [-48.6276341, -26.3930133],
            [-48.6279774, -26.3928692],
            [-48.6283422, -26.3927538],
            [-48.6286962, -26.3927058],
            [-48.6290771, -26.3926481],
            [-48.6294526, -26.3925953],
            [-48.6298227, -26.3925328],
            [-48.6301607, -26.3923886],
            [-48.6304236, -26.3921484],
            [-48.6306435, -26.3918697],
            [-48.6307991, -26.3915573],
            [-48.63086, -26.3911449],
            [-48.6309134, -26.3908725],
            [-48.6313572, -26.3906185],
            [-48.6320731, -26.3904786],
            [-48.6324121, -26.3902541],
            [-48.6325046, -26.3902037],
            [-48.6326237, -26.3902062],
            [-48.6327312, -26.3902844],
            [-48.6327408, -26.3903737],
            [-48.6326731, -26.3905265],
            [-48.6327277, -26.3907746],
            [-48.6328089, -26.3908315]
          ]
        ]
      },
      "id": "relation/10309025"
    },
    {
      "type": "Feature",
      "properties": {
        "@id": "relation/10309027",
        "natural": "wetland",
        "type": "multipolygon",
        "wetland": "marsh"
      },
      "geometry": {
        "type": "Polygon",
        "coordinates": [
          [
            [-48.6333, -26.3908866],
            [-48.6336009, -26.3904138],
            [-48.6337509, -26.3902077],
            [-48.6339707, -26.3899721],
            [-48.6341392, -26.3897752],
            [-48.6342337, -26.3897347],
            [-48.6343652, -26.3897696],
            [-48.6345645, -26.3897733],
            [-48.6347022, -26.3898377],
            [-48.6347515, -26.3899279],
            [-48.6347885, -26.3901377],
            [-48.6347659, -26.3903991],
            [-48.6347638, -26.3904801],
            [-48.6347268, -26.3906089],
            [-48.6347145, -26.3907212],
            [-48.6348172, -26.3908408],
            [-48.6349118, -26.3908905],
            [-48.6350248, -26.390896],
            [-48.635109, -26.3908206],
            [-48.6352179, -26.3906402],
            [-48.6352343, -26.3905739],
            [-48.6353186, -26.3903936],
            [-48.6354069, -26.3901138],
            [-48.6353473, -26.3898488],
            [-48.6353104, -26.3895966],
            [-48.635335, -26.3895248],
            [-48.6354213, -26.3895193],
            [-48.6354891, -26.3895469],
            [-48.6355734, -26.3896518],
            [-48.6357706, -26.3897715],
            [-48.6360131, -26.3898525],
            [-48.6363069, -26.3898837],
            [-48.6364322, -26.3899187],
            [-48.6365411, -26.3899923],
            [-48.6366233, -26.3900034],
            [-48.6367404, -26.3899592],
            [-48.6369192, -26.3898304],
            [-48.6369767, -26.3897181],
            [-48.6369993, -26.3895727],
            [-48.6370774, -26.3895488],
            [-48.6371411, -26.3895966],
            [-48.6372027, -26.3897144],
            [-48.6372623, -26.3897991],
            [-48.637365, -26.3898653],
            [-48.6375294, -26.3899003],
            [-48.6376383, -26.3898543],
            [-48.637741, -26.3897531],
            [-48.6378109, -26.3897457],
            [-48.6378602, -26.3897844],
            [-48.6378992, -26.3898083],
            [-48.6379588, -26.3897494],
            [-48.6378947, -26.3897833],
            [-48.6378231, -26.3897235],
            [-48.6377615, -26.3897216],
            [-48.637706, -26.3897474],
            [-48.6376136, -26.3898339],
            [-48.6375211, -26.3898744],
            [-48.6373958, -26.3898413],
            [-48.637291, -26.3897824],
            [-48.6372006, -26.3896407],
            [-48.6371266, -26.3895357],
            [-48.6370424, -26.389521],
            [-48.6369622, -26.3895818],
            [-48.636952, -26.3896627],
            [-48.6369068, -26.3897677],
            [-48.6367999, -26.3898818],
            [-48.6366397, -26.3899646],
            [-48.6365862, -26.389972],
            [-48.6364835, -26.3899094],
            [-48.6363582, -26.3898634],
            [-48.6361589, -26.3898247],
            [-48.6359103, -26.3897695],
            [-48.6356904, -26.3896554],
            [-48.635563, -26.3895615],
            [-48.6354623, -26.3894768],
            [-48.6353576, -26.389486],
            [-48.6353062, -26.3895192],
            [-48.6352733, -26.3895928],
            [-48.6353411, -26.3901358],
            [-48.6352076, -26.390502],
            [-48.6351521, -26.3906677],
            [-48.6350884, -26.390791],
            [-48.6349795, -26.3908573],
            [-48.6348706, -26.3908223],
            [-48.6347823, -26.390745],
            [-48.6347597, -26.3906474],
            [-48.6347966, -26.3905572],
            [-48.6348336, -26.3904818],
            [-48.6348521, -26.3901818],
            [-48.6348501, -26.390018],
            [-48.6347781, -26.3898247],
            [-48.634624, -26.389729],
            [-48.6344782, -26.3897161],
            [-48.6343795, -26.3896775],
            [-48.6342439, -26.3896683],
            [-48.6341145, -26.389718],
            [-48.6336234, -26.3902352],
            [-48.6332597, -26.3908315],
            [-48.6332269, -26.3908738],
            [-48.6331406, -26.3908867],
            [-48.6327804, -26.3907464],
            [-48.6327391, -26.3906232],
            [-48.6327913, -26.3903566],
            [-48.6327625, -26.3902775],
            [-48.6326598, -26.3901781],
            [-48.632516, -26.3901505],
            [-48.6324112, -26.3901983],
            [-48.6320228, -26.3904431],
            [-48.6312637, -26.3906019],
            [-48.6308773, -26.3908361],
            [-48.6307959, -26.3911485],
            [-48.6306596, -26.3911585],
            [-48.6305308, -26.3911489],
            [-48.6304021, -26.3910912],
            [-48.6302573, -26.3909807],
            [-48.6301446, -26.390875],
            [-48.6300534, -26.39075],
            [-48.62993, -26.3906827],
            [-48.6298227, -26.3906587],
            [-48.629694, -26.3906587],
            [-48.6295277, -26.3906731],
            [-48.6292541, -26.3907212],
            [-48.6290771, -26.3907837],
            [-48.6288518, -26.3908461],
            [-48.6286318, -26.3908846],
            [-48.6284441, -26.3909134],
            [-48.6281222, -26.3909134],
            [-48.6279398, -26.3908509],
            [-48.6276943, -26.3907213],
            [-48.6279637, -26.3901055],
            [-48.6284258, -26.389455],
            [-48.6289354, -26.3887298],
            [-48.629523, -26.3881408],
            [-48.6302257, -26.3875445],
            [-48.6310434, -26.3870181],
            [-48.631742, -26.3865238],
            [-48.632457, -26.3860941],
            [-48.6325074, -26.3861008],
            [-48.632568, -26.3861088],
            [-48.632186, -26.3866438],
            [-48.6317095, -26.3871748],
            [-48.6311981, -26.3880598],
            [-48.6309075, -26.3885908],
            [-48.6311051, -26.3888407],
            [-48.630954, -26.3892155],
            [-48.6310613, -26.389966],
            [-48.6312329, -26.3904545],
            [-48.631663, -26.3904649],
            [-48.6320698, -26.3902254],
            [-48.632709, -26.3897673],
            [-48.6332669, -26.3895174],
            [-48.6332321, -26.3892884],
            [-48.6331158, -26.3889968],
            [-48.633081, -26.3887053],
            [-48.6328253, -26.3887053],
            [-48.6326393, -26.3886533],
            [-48.6328369, -26.388445],
            [-48.6330112, -26.3882888],
            [-48.6329183, -26.3880286],
            [-48.6332321, -26.3877891],
            [-48.63379, -26.3877058],
            [-48.6338365, -26.3874663],
            [-48.6341038, -26.3872997],
            [-48.6345455, -26.3872268],
            [-48.6348941, -26.3874143],
            [-48.6352545, -26.387508],
            [-48.6357542, -26.3873622],
            [-48.6361727, -26.387383],
            [-48.6362773, -26.3874767],
            [-48.6362308, -26.3877058],
            [-48.6358124, -26.3878203],
            [-48.6349988, -26.3878203],
            [-48.6347082, -26.3879973],
            [-48.6346501, -26.3884346],
            [-48.6348709, -26.3886845],
            [-48.6353126, -26.3886949],
            [-48.6357659, -26.3881118],
            [-48.6363586, -26.387914],
            [-48.6370095, -26.3880598],
            [-48.6372768, -26.3876329],
            [-48.6369746, -26.3870082],
            [-48.6366957, -26.3864043],
            [-48.6363819, -26.3857692],
            [-48.6359053, -26.3855089],
            [-48.6353591, -26.3859358],
            [-48.6346617, -26.3861023],
            [-48.6334762, -26.3860086],
            [-48.6333483, -26.3858629],
            [-48.6338132, -26.3855401],
            [-48.6350917, -26.3850091],
            [-48.6354615, -26.3845241],
            [-48.6363887, -26.3840717],
            [-48.6370011, -26.383789],
            [-48.6371737, -26.3837964],
            [-48.637149, -26.3841866],
            [-48.6374202, -26.3846283],
            [-48.6373709, -26.3848345],
            [-48.6373874, -26.3850627],
            [-48.6376586, -26.3851658],
            [-48.6376668, -26.3850185],
            [-48.6376586, -26.3847903],
            [-48.6378969, -26.3846725],
            [-48.6379627, -26.3845179],
            [-48.6377079, -26.3843633],
            [-48.6374202, -26.3840982],
            [-48.6373956, -26.3835019],
            [-48.6381599, -26.3829349],
            [-48.6383243, -26.3830159],
            [-48.6385462, -26.3832663],
            [-48.6391872, -26.3838332],
            [-48.6392859, -26.3843338],
            [-48.6396064, -26.3853425],
            [-48.6399105, -26.3858652],
            [-48.6399927, -26.386145],
            [-48.6402392, -26.3861744],
            [-48.6411268, -26.3861818],
            [-48.6420062, -26.3849817],
            [-48.6421624, -26.3844001],
            [-48.6420884, -26.383951],
            [-48.6415953, -26.3834871],
            [-48.64162, -26.3831853],
            [-48.6424007, -26.3823091],
            [-48.6426966, -26.3812489],
            [-48.6430664, -26.3805789],
            [-48.6435678, -26.3802991],
            [-48.6436828, -26.3800046],
            [-48.6439787, -26.3798352],
            [-48.6447677, -26.3788265],
            [-48.6446444, -26.3785836],
            [-48.6441842, -26.3784142],
            [-48.6436335, -26.3785688],
            [-48.6431404, -26.3790769],
            [-48.6421624, -26.3794745],
            [-48.641283, -26.3799972],
            [-48.6409534, -26.3801579],
            [-48.6406298, -26.380361],
            [-48.6403165, -26.3805206],
            [-48.6398698, -26.3807202],
            [-48.6404688, -26.3800881],
            [-48.6408958, -26.3797592],
            [-48.6413355, -26.3793726],
            [-48.6421204, -26.3788204],
            [-48.6427985, -26.3783565],
            [-48.6434025, -26.3779626],
            [-48.64376, -26.3778338],
            [-48.6439367, -26.3775577],
            [-48.645264, -26.3766115],
            [-48.6453709, -26.376571],
            [-48.6460243, -26.376155],
            [-48.6461804, -26.3762066],
            [-48.6461434, -26.3760703],
            [-48.6461023, -26.3759452],
            [-48.6462215, -26.3759488],
            [-48.6468708, -26.3756838],
            [-48.6487816, -26.3750616],
            [-48.6496158, -26.3748333],
            [-48.6503002, -26.3746938],
            [-48.6508322, -26.3746677],
            [-48.6514568, -26.3747708],
            [-48.6514856, -26.3748849],
            [-48.6517033, -26.3748812],
            [-48.6520033, -26.3746787],
            [-48.6530882, -26.3746603],
            [-48.6533964, -26.3745609],
            [-48.6534704, -26.3747708],
            [-48.6541278, -26.3746309],
            [-48.6556442, -26.3742664],
            [-48.6561567, -26.3742617],
            [-48.6565322, -26.3742232],
            [-48.6569077, -26.37418],
            [-48.6572832, -26.3741367],
            [-48.6576426, -26.3740694],
            [-48.658002, -26.3739973],
            [-48.6583614, -26.3739012],
            [-48.6587155, -26.3738099],
            [-48.6590856, -26.3738099],
            [-48.659429, -26.3739397],
            [-48.6595416, -26.3742569],
            [-48.6594933, -26.3744058],
            [-48.6593377, -26.3745954],
            [-48.6592466, -26.3743482],
            [-48.659209, -26.3741559],
            [-48.6590695, -26.3740358],
            [-48.6587691, -26.3740021],
            [-48.6585224, -26.3740262],
            [-48.6582488, -26.3741079],
            [-48.6579269, -26.3742472],
            [-48.6577016, -26.3744203],
            [-48.6573154, -26.3746077],
            [-48.6568487, -26.3747903],
            [-48.6565268, -26.374872],
            [-48.6561889, -26.3749105],
            [-48.6558402, -26.3750643],
            [-48.6554915, -26.3752421],
            [-48.655175, -26.3754488],
            [-48.6548746, -26.3757083],
            [-48.654601, -26.375939],
            [-48.6542684, -26.3761552],
            [-48.6538714, -26.3762562],
            [-48.6536998, -26.375939],
            [-48.6533994, -26.3757227],
            [-48.6533886, -26.3757227],
            [-48.6530292, -26.3758284],
            [-48.6528307, -26.3761312],
            [-48.6527181, -26.376482],
            [-48.652702, -26.3768136],
            [-48.6526859, -26.3772318],
            [-48.6522406, -26.3777316],
            [-48.6518169, -26.3779142],
            [-48.6513931, -26.3779959],
            [-48.6509961, -26.3780199],
            [-48.6505991, -26.3780199],
            [-48.6502236, -26.3779767],
            [-48.6500895, -26.3776595],
            [-48.64995, -26.3773327],
            [-48.6496604, -26.3770876],
            [-48.6492688, -26.3770347],
            [-48.648904, -26.3771501],
            [-48.6486358, -26.3773904],
            [-48.6484104, -26.3776739],
            [-48.648169, -26.3779719],
            [-48.6479169, -26.3782554],
            [-48.647697, -26.3785582],
            [-48.6475253, -26.3788754],
            [-48.6474288, -26.3791974],
            [-48.6473644, -26.3795626],
            [-48.6473537, -26.3799134],
            [-48.6474717, -26.380394],
            [-48.6475253, -26.3807496],
            [-48.6475307, -26.3810957],
            [-48.6474985, -26.3812014],
            [-48.6471283, -26.3814176],
            [-48.6467367, -26.3814945],
            [-48.6461681, -26.3814657],
            [-48.6455029, -26.381509],
            [-48.6451918, -26.3817012],
            [-48.6449772, -26.3819895],
            [-48.6448807, -26.3823211],
            [-48.6448431, -26.3826527],
            [-48.6448002, -26.3829987],
            [-48.644709, -26.3833351],
            [-48.6444837, -26.3836235],
            [-48.6441618, -26.3839358],
            [-48.6438561, -26.3841329],
            [-48.6435396, -26.3843587],
            [-48.6431211, -26.3848537],
            [-48.6429226, -26.3851516],
            [-48.6427188, -26.3854496],
            [-48.6424774, -26.3858148],
            [-48.6422575, -26.3861368],
            [-48.6419678, -26.3866029],
            [-48.6417693, -26.3869393],
            [-48.6413884, -26.3876025],
            [-48.6409915, -26.388035],
            [-48.6407018, -26.38828],
            [-48.6404121, -26.3885011],
            [-48.6401063, -26.3887221],
            [-48.6397362, -26.3888567],
            [-48.6393929, -26.3889816],
            [-48.6390495, -26.389145],
            [-48.6387867, -26.3894237],
            [-48.6385614, -26.3898226],
            [-48.6384916, -26.3898995],
            [-48.6381376, -26.3900148],
            [-48.6377567, -26.3901061],
            [-48.6373758, -26.3901157],
            [-48.6368555, -26.3901734],
            [-48.6364532, -26.390183],
            [-48.6360616, -26.3901974],
            [-48.6356968, -26.3903223],
            [-48.6354929, -26.3906059],
            [-48.6352783, -26.3908942],
            [-48.6349136, -26.3909999],
            [-48.6345434, -26.3909182],
            [-48.634243, -26.3907068],
            [-48.6338621, -26.3907068],
            [-48.6335027, -26.3908269],
            [-48.6333, -26.3908866]
          ],
          [
            [-48.6297513, -26.3886619],
            [-48.6294142, -26.3888129],
            [-48.6293503, -26.3889534],
            [-48.6292399, -26.3890784],
            [-48.6291353, -26.3892658],
            [-48.6292399, -26.3895001],
            [-48.6295246, -26.3898801],
            [-48.629728, -26.3901352],
            [-48.6298849, -26.389979],
            [-48.630007, -26.3896614],
            [-48.6299256, -26.3893543],
            [-48.6297106, -26.3890836],
            [-48.6297513, -26.3886619]
          ]
        ]
      },
      "id": "relation/10309027"
    },
    {
      "type": "Feature",
      "properties": {
        "@id": "relation/10309029",
        "natural": "wetland",
        "type": "multipolygon",
        "wetland": "marsh"
      },
      "geometry": {
        "type": "Polygon",
        "coordinates": [
          [
            [-48.6589602, -26.3782025],
            [-48.6589812, -26.3783998],
            [-48.6592879, -26.3787034],
            [-48.6593431, -26.3787763],
            [-48.6592894, -26.3788752],
            [-48.6592036, -26.3790744],
            [-48.6592443, -26.3791538],
            [-48.6593315, -26.3792006],
            [-48.6593998, -26.3792553],
            [-48.6593635, -26.37931],
            [-48.659237, -26.3793747],
            [-48.6593315, -26.3793416],
            [-48.6593973, -26.3793526],
            [-48.6594548, -26.3794005],
            [-48.6594466, -26.3793232],
            [-48.6594302, -26.3792312],
            [-48.6593315, -26.3791612],
            [-48.6592699, -26.3790986],
            [-48.6593315, -26.3789109],
            [-48.6594137, -26.3788188],
            [-48.6597137, -26.3790986],
            [-48.6603178, -26.3793968],
            [-48.6607164, -26.3794705],
            [-48.661267, -26.3793306],
            [-48.6616862, -26.379014],
            [-48.6618053, -26.3786495],
            [-48.6619122, -26.3780973],
            [-48.6618711, -26.3774052],
            [-48.661904, -26.3772542],
            [-48.6620437, -26.3772689],
            [-48.6621998, -26.3773278],
            [-48.6624094, -26.3775082],
            [-48.662545, -26.3777733],
            [-48.6626231, -26.3781341],
            [-48.662771, -26.3786679],
            [-48.6627957, -26.379117],
            [-48.6628902, -26.379198],
            [-48.6628573, -26.3795809],
            [-48.662582, -26.3801257],
            [-48.6624957, -26.3802656],
            [-48.6625204, -26.3803319],
            [-48.6624669, -26.3806375],
            [-48.6623478, -26.3809025],
            [-48.6620355, -26.3813664],
            [-48.6618259, -26.381786],
            [-48.661756, -26.3819554],
            [-48.6617437, -26.3822978],
            [-48.661604, -26.382526],
            [-48.6612835, -26.3825665],
            [-48.6609753, -26.3825444],
            [-48.6609259, -26.3824892],
            [-48.661004, -26.3824597],
            [-48.6611026, -26.3824597],
            [-48.6613122, -26.3824045],
            [-48.6615095, -26.3822057],
            [-48.6616492, -26.3820106],
            [-48.6616492, -26.3818486],
            [-48.6618053, -26.3814731],
            [-48.6617461, -26.3814225],
            [-48.6618376, -26.3812927],
            [-48.6620307, -26.3809899],
            [-48.6621058, -26.3806583],
            [-48.6620897, -26.3803171],
            [-48.6619663, -26.3799951],
            [-48.6616874, -26.3797452],
            [-48.6613011, -26.3796924],
            [-48.6609203, -26.3796924],
            [-48.6605394, -26.3796924],
            [-48.6601371, -26.3796924],
            [-48.6597401, -26.3796924],
            [-48.6593539, -26.3796876],
            [-48.658973, -26.3796491],
            [-48.6586136, -26.3795674],
            [-48.6583883, -26.3792935],
            [-48.6584419, -26.3789523],
            [-48.6585814, -26.3786351],
            [-48.658796, -26.3783611],
            [-48.6589602, -26.3782025]
          ]
        ]
      },
      "id": "relation/10309029"
    },
    {
      "type": "Feature",
      "properties": {
        "@id": "way/303371244",
        "natural": "wetland",
        "wetland": "marsh"
      },
      "geometry": {
        "type": "Polygon",
        "coordinates": [
          [
            [-48.6658475, -26.3886356],
            [-48.6657214, -26.3887558],
            [-48.665641, -26.3889048],
            [-48.66559, -26.3890657],
            [-48.6655229, -26.3892219],
            [-48.6654317, -26.3893661],
            [-48.6652815, -26.3894694],
            [-48.6650938, -26.3894934],
            [-48.6649382, -26.3893973],
            [-48.6648443, -26.3892483],
            [-48.6648175, -26.3890802],
            [-48.6649489, -26.38896],
            [-48.6651152, -26.3888855],
            [-48.6652762, -26.3887966],
            [-48.6654264, -26.3886957],
            [-48.6655524, -26.3885636],
            [-48.6656597, -26.3884266],
            [-48.665708, -26.3884314],
            [-48.6657509, -26.3884891],
            [-48.6658475, -26.3886356]
          ]
        ]
      },
      "id": "way/303371244"
    }
  ]
}
