{
  "type": "FeatureCollection",
  "features": [
    {
      "type": "Feature",
      "properties": {},
      "geometry": {
        "coordinates": [
          [
            [-48.66058095947284, -26.36463428139286],
            [-48.660572684059375, -26.36465547425024],
            [-48.66056960475938, -26.364670249382034],
            [-48.660567201276166, -26.364761523809527],
            [-48.660542644551505, -26.364879942905674],
            [-48.66055331264705, -26.3651162762543],
            [-48.660484852834685, -26.3652649990184],
            [-48.660434143754856, -26.365363374325877],
            [-48.66040540091373, -26.365393802038554],
            [-48.660247189318426, -26.365560615375944],
            [-48.66006094002594, -26.365950353830215],
            [-48.659856975709076, -26.366177514544933],
            [-48.65970124344907, -26.36635072943659],
            [-48.659603202555445, -26.36642463478016],
            [-48.659261984804644, -26.366668066709362],
            [-48.6587959056192, -26.36687092077846],
            [-48.65855055313732, -26.366987935043085],
            [-48.65830556373842, -26.367106618633773],
            [-48.65807682935335, -26.367231127788415],
            [-48.657834799569514, -26.36737008743792],
            [-48.65756700615582, -26.367540463977782],
            [-48.65728891752484, -26.367721301710944],
            [-48.657141638045466, -26.367876701210225],
            [-48.6569446118726, -26.368074574563174],
            [-48.6567484050537, -26.368316530796786],
            [-48.65650957942161, -26.368624840615837],
            [-48.65633356183148, -26.368901824857318],
            [-48.656152403825075, -26.36919963272988],
            [-48.656045556605605, -26.36936983684236],
            [-48.655928839397745, -26.36957468553948],
            [-48.655734531638274, -26.369977551471706],
            [-48.6557042295389, -26.370397258644722],
            [-48.655675656830965, -26.370807133713697],
            [-48.6556612365686, -26.370969567005538],
            [-48.65568024353739, -26.37111230265555],
            [-48.655703693525304, -26.371293247874696],
            [-48.655841962911495, -26.371513057169402],
            [-48.65566458656096, -26.3715103866857],
            [-48.65546171815663, -26.371506102599273],
            [-48.655087922872156, -26.371511017024098],
            [-48.65506010644184, -26.371526781833275],
            [-48.65503825812172, -26.371536899255894],
            [-48.65503264476868, -26.371539730282297],
            [-48.65503242558455, -26.371545303836726],
            [-48.65507024607413, -26.37163207183354],
            [-48.65505634447359, -26.371671684398592],
            [-48.65504969600448, -26.37168792475689],
            [-48.65475565456319, -26.37171848524532],
            [-48.65456726399074, -26.371738936579717],
            [-48.65442801634396, -26.37173028992582],
            [-48.65427872119446, -26.371720378708964],
            [-48.654066002548774, -26.371673974186855],
            [-48.65376392526798, -26.37150349951096],
            [-48.653688967551304, -26.371462340987435],
            [-48.65361511897683, -26.371421234700044],
            [-48.6535409006961, -26.371413476560775],
            [-48.65348821207691, -26.371458848994493],
            [-48.653451133704465, -26.37159722651767],
            [-48.653385044859846, -26.37166804082929],
            [-48.65325309828532, -26.37171745341552],
            [-48.65301676665203, -26.37173195812774],
            [-48.65280623034364, -26.371730787133917],
            [-48.65259964010886, -26.371761827195208],
            [-48.65240698337111, -26.371871346421305],
            [-48.652283737106615, -26.37189198044966],
            [-48.65189077322421, -26.37194922551989],
            [-48.65079533033369, -26.372113170352748],
            [-48.64987850379964, -26.37224896608818],
            [-48.648963254968436, -26.372389819797135],
            [-48.64870436467132, -26.37239920222309],
            [-48.64845846892288, -26.372348741196546],
            [-48.64804369994488, -26.37213559967428],
            [-48.64777929300594, -26.372002642244215],
            [-48.64749344761327, -26.37191181104324],
            [-48.64703108489837, -26.371856200102613],
            [-48.64686495374214, -26.371840544347556],
            [-48.64669162605384, -26.3718480783792],
            [-48.6465096769123, -26.371896871781804],
            [-48.64628714121099, -26.371934930493495],
            [-48.64585208471968, -26.37224293862696],
            [-48.64559260774121, -26.37241573263219],
            [-48.64546888085902, -26.372476746719776],
            [-48.64539377608894, -26.372479922064937],
            [-48.645272224294445, -26.3724703027356],
            [-48.64458370643891, -26.372237421040232],
            [-48.64397859665476, -26.3720233600667],
            [-48.643682179072144, -26.371941993597172],
            [-48.64340965690337, -26.371907175914274],
            [-48.643050980915845, -26.372026222839715],
            [-48.642728030825026, -26.37218289887572],
            [-48.64251715511044, -26.372345134720774],
            [-48.6423416574863, -26.372501193830615],
            [-48.64225978985317, -26.37265474862446],
            [-48.642231412731206, -26.372829122524827],
            [-48.642207741164114, -26.37293960817143],
            [-48.64220470681579, -26.373046490738613],
            [-48.64221854967553, -26.373281454189858],
            [-48.64224666601726, -26.373776937762003],
            [-48.64225878189899, -26.37400839447847],
            [-48.64227776926853, -26.374222201868434],
            [-48.642321287524396, -26.374263872972968],
            [-48.64243081465327, -26.374299502859127],
            [-48.64265519073754, -26.37436709189594],
            [-48.64306205197249, -26.374481311588973],
            [-48.64310984297576, -26.374549250702447],
            [-48.64311582280621, -26.374614894002512],
            [-48.64308324052595, -26.3746628788233],
            [-48.643006322276804, -26.374739166188178],
            [-48.64289416205566, -26.37485039312137],
            [-48.64278581179036, -26.374965067199483],
            [-48.64255824175399, -26.375193484003965],
            [-48.642220594456944, -26.37553604662193],
            [-48.64178690189135, -26.375512695070306],
            [-48.64103978505668, -26.37543353254668],
            [-48.640732004374215, -26.37538675695773],
            [-48.640449623242404, -26.375273861316835],
            [-48.640166015241846, -26.375134686830915],
            [-48.640052468370484, -26.37506839101247],
            [-48.63994512013252, -26.374946181201494],
            [-48.639893015891154, -26.37485292813151],
            [-48.63984416210961, -26.374704275682898],
            [-48.63982004662953, -26.374609563128608],
            [-48.639843177507345, -26.374492893892224],
            [-48.639860851365434, -26.374361273368002],
            [-48.63992864418303, -26.374220902617278],
            [-48.63998751690749, -26.374095797258157],
            [-48.64001623503805, -26.373937573962642],
            [-48.640033981860554, -26.37386163985724],
            [-48.63994068574504, -26.37373732905894],
            [-48.63986873748732, -26.37364081972534],
            [-48.639601028515415, -26.3735898802721],
            [-48.63940656814552, -26.373693579342746],
            [-48.639140678742194, -26.373771366472752],
            [-48.6388579965041, -26.373773282256444],
            [-48.638565199609616, -26.3736864904987],
            [-48.63831779780445, -26.37362924452685],
            [-48.63805626014624, -26.373732109794254],
            [-48.63785013438138, -26.373944438329296],
            [-48.63767099022442, -26.37409896268036],
            [-48.63738958958973, -26.374156192177452],
            [-48.63708234657224, -26.374169730906566],
            [-48.636982809330135, -26.374286117800295],
            [-48.63712855525253, -26.374495197009857],
            [-48.637404558506816, -26.374561010916178],
            [-48.63778253826845, -26.374561042856733],
            [-48.63814862611707, -26.374577256465354],
            [-48.63827998631581, -26.374590585296545],
            [-48.638479256047546, -26.37479331915671],
            [-48.638498467733086, -26.374906858779575],
            [-48.638522636706426, -26.37504317420319],
            [-48.638416670377325, -26.375277603133675],
            [-48.638235355222605, -26.3754254786817],
            [-48.638010679720026, -26.375649272011962],
            [-48.637996370520284, -26.375896013146992],
            [-48.63826170649901, -26.37603139302685],
            [-48.63847142111216, -26.37585966841704],
            [-48.638701183399576, -26.37573790426947],
            [-48.63890456281655, -26.375690164133502],
            [-48.63901823461029, -26.375673164440713],
            [-48.639259514349845, -26.375798749561476],
            [-48.63939871804634, -26.3760564589012],
            [-48.63940681085421, -26.376161598207958],
            [-48.63943455899988, -26.37630532741894],
            [-48.63944171544807, -26.376551347775095],
            [-48.639387524278504, -26.376700316514828],
            [-48.63928581832866, -26.37694826213066],
            [-48.6391336428334, -26.37726882056942],
            [-48.638961825036375, -26.37754209500143],
            [-48.63884841233576, -26.377784813582878],
            [-48.638779606841084, -26.377800651394313],
            [-48.63873458319883, -26.37786525499743],
            [-48.63873227029691, -26.37792925580421],
            [-48.63871615760907, -26.37808358836843],
            [-48.63861200805002, -26.37833964849338],
            [-48.63838890630157, -26.378797191085653],
            [-48.638048420652154, -26.378414617551385],
            [-48.637902202648235, -26.37822222397184],
            [-48.63761889454821, -26.378053763979324],
            [-48.637269343169464, -26.377914577919604],
            [-48.63679745221671, -26.37788285803874],
            [-48.63644249983969, -26.377802981386992],
            [-48.63636712505607, -26.37765784583207],
            [-48.636439613373625, -26.377508761321863],
            [-48.63647853217859, -26.377399956403437],
            [-48.63655793921147, -26.377266262868332],
            [-48.63665410093378, -26.37709068926337],
            [-48.6367785550874, -26.37684152346798],
            [-48.63688668092601, -26.376615769895423],
            [-48.63693433667186, -26.376504023608113],
            [-48.636945880928835, -26.376317705887477],
            [-48.636948045411145, -26.376214654649466],
            [-48.63695549896178, -26.375997816483547],
            [-48.63686057538959, -26.375866020191808],
            [-48.63682856936413, -26.375821611994176],
            [-48.63671581470925, -26.375666133281968],
            [-48.63663256455706, -26.375554851718945],
            [-48.63648274810927, -26.375458229995516],
            [-48.636378123535486, -26.375384140334347],
            [-48.63623356249313, -26.375288236439022],
            [-48.636178342596416, -26.37525486978648],
            [-48.63604765991077, -26.375235619816063],
            [-48.63586578479496, -26.375206116327846],
            [-48.63562552334852, -26.375165562572988],
            [-48.63531380282015, -26.375211507525727],
            [-48.6350474653715, -26.37525657777329],
            [-48.63500611148396, -26.375308975578974],
            [-48.634751767656596, -26.375673661431424],
            [-48.634562193063175, -26.376096948861665],
            [-48.6344773645954, -26.37641240358023],
            [-48.63441106419177, -26.376679387496225],
            [-48.634496377584696, -26.377091759907586],
            [-48.63480216547603, -26.377548265961302],
            [-48.63478848355865, -26.37804448305134],
            [-48.63431017429109, -26.378348180339433],
            [-48.63385033254235, -26.37856092513512],
            [-48.63329618383767, -26.378809997819815],
            [-48.632959330606255, -26.379038681985556],
            [-48.632698290882615, -26.379299365080925],
            [-48.632519931696265, -26.379512100348705],
            [-48.63250781239165, -26.378686827461088],
            [-48.632550092338704, -26.378455743795126],
            [-48.63277419123165, -26.378047617609788],
            [-48.633262430738114, -26.37711101352494],
            [-48.6336713065196, -26.37629821706318],
            [-48.63377307830644, -26.376077284522232],
            [-48.63380676985294, -26.375810665009055],
            [-48.63385975988169, -26.37532380385973],
            [-48.63393391847451, -26.37477171254697],
            [-48.634146262948036, -26.37399672848681],
            [-48.63454400227175, -26.373377436226598],
            [-48.635106599015415, -26.372934080973984],
            [-48.63572271075148, -26.372657947391517],
            [-48.63674062139182, -26.372341057502936],
            [-48.63709703881834, -26.372309967295784],
            [-48.637440922861, -26.372361944107432],
            [-48.63768530345362, -26.37249325635066],
            [-48.637893034627936, -26.372504293010756],
            [-48.63849170115958, -26.3723922424968],
            [-48.63872823119842, -26.372345207112446],
            [-48.63887336783954, -26.37231412830272],
            [-48.63907683289586, -26.372227628491082],
            [-48.63932480782361, -26.37213472837759],
            [-48.64111420725126, -26.37145729071809],
            [-48.642783924672955, -26.370927212447334],
            [-48.645029998909195, -26.370604839602088],
            [-48.646970372666004, -26.370046654118696],
            [-48.647604340600765, -26.369809286311238],
            [-48.64786512307326, -26.369736291357405],
            [-48.648066801623884, -26.369676390982242],
            [-48.6483840155378, -26.36959600534479],
            [-48.64876390214519, -26.36953484175089],
            [-48.64907842209085, -26.369489830655773],
            [-48.649332345978735, -26.369458174719888],
            [-48.64977331487927, -26.36940787993256],
            [-48.650196701361125, -26.3691693678478],
            [-48.65061429532835, -26.368954069461488],
            [-48.65085089571659, -26.369239086372176],
            [-48.65098518929244, -26.369515252568043],
            [-48.65109803977677, -26.369728471027592],
            [-48.65124786465793, -26.369940784476874],
            [-48.65134458890206, -26.37006838766881],
            [-48.651453388024436, -26.370223023020184],
            [-48.65167538618519, -26.37054540159736],
            [-48.65218592508364, -26.370780697303033],
            [-48.65274656971016, -26.3708215455951],
            [-48.65323733952508, -26.37058149295079],
            [-48.653447211813116, -26.37031093081751],
            [-48.653577629029776, -26.37015038629483],
            [-48.653618052865454, -26.3700772166081],
            [-48.653656326513186, -26.370015523436408],
            [-48.65369660549337, -26.369935125821407],
            [-48.653757154587666, -26.369855352080467],
            [-48.653861525452214, -26.369647382362267],
            [-48.65391035571544, -26.369400333295857],
            [-48.65398364172418, -26.369151789632248],
            [-48.65406589576337, -26.368844786358032],
            [-48.654133909525626, -26.36857912354789],
            [-48.654221142161106, -26.368223809957414],
            [-48.65422509470213, -26.367960858764356],
            [-48.65520959780764, -26.36771314189155],
            [-48.656264346172776, -26.367290440892447],
            [-48.656788039083395, -26.367079733149257],
            [-48.65706511086146, -26.36694775603685],
            [-48.65726585763929, -26.366851358406556],
            [-48.65756824756122, -26.36670769557573],
            [-48.657749297055645, -26.3665595421227],
            [-48.65794752108105, -26.366398119246643],
            [-48.65811233057158, -26.366293884186938],
            [-48.6588478441016, -26.365820486910376],
            [-48.65959045584577, -26.365327020525363],
            [-48.66038037524801, -26.364774911548935],
            [-48.660581059965295, -26.364634050862826],
            [-48.66058095947284, -26.36463428139286]
          ]
        ],
        "type": "Polygon"
      }
    }
  ]
}
